COSMOS 2433 (720)       
1 32275C 07052A   21341.99979167  .00000000  00000-0  00000-0 0  3412
2 32275  66.0784  11.0236 0005177 250.0053  13.8380  2.13103907    10
COSMOS 2432 (719)       
1 32276C 07052B   21341.99979167  .00000000  00000-0  00000-0 0  3413
2 32276  66.0916  11.1213 0010814 315.3529 257.2927  2.13103189    14
COSMOS 2434 (721)       
1 32393C 07065A   21341.99979167 -.00000000  00000-0  00000-0 0  3418
2 32393  64.4199 247.9697 0003192  69.3835  83.3457  2.13103102    12
COSMOS 2436 (723)       
1 32395C 07065C   21341.99979167 -.00000000  00000-0  00000-0 0  3410
2 32395  64.4288 248.0248 0016249   1.0933 287.6333  2.13102685    13
COSMOS 2456 (730)       
1 36111C 09070A   21341.99979167 -.00000000  00000-0  00000-0 0  3418
2 36111  64.3104 127.6287 0001644 335.2055 345.7871  2.13098991    11
COSMOS 2457 (733)       
1 36112C 09070B   21341.99979167 -.00000000  00000-0  00000-0 0  3419
2 36112  64.2933 127.5092 0006789 152.9376 293.8242  2.13101205    17
COSMOS 2459 (731)       
1 36400C 10007A   21341.99979167  .00000000  00000-0  00000-0 0  3410
2 36400  65.9676   9.8884 0019258 359.7620 121.7134  2.13103474    13
COSMOS 2460 (732)       
1 36402C 10007C   21341.99979167  .00000000  00000-0  00000-0 0  3412
2 36402  65.9545   9.8422 0002295 258.3348 169.7197  2.13106334    11
COSMOS 2464 (736)       
1 37139C 10041C   21341.99979167 -.00000000  00000-0  00000-0 0  3419
2 37139  64.0192 247.1403 0029556  10.6573   1.7117  2.13100698    15
COSMOS 2476 (744)       
1 37867C 11064A   21341.99979167 -.00000000  00000-0  00000-0 0  3413
2 37867  64.6024 128.9101 0020018 230.9352 353.8780  2.13101648    13
COSMOS 2477 (745)       
1 37868C 11064B   21341.99979167 -.00000000  00000-0  00000-0 0  3414
2 37868  64.6103 128.9727 0017459 230.9604 172.0948  2.13101475    16
COSMOS 2475 (743)       
1 37869C 11064C   21341.99979167 -.00000000  00000-0  00000-0 0  3415
2 37869  64.6176 128.9791 0020828 252.3680 108.5581  2.13101647    12
COSMOS 2485 (747)       
1 39155C 13019A   21341.99979167 -.00000000  00000-0  00000-0 0  3417
2 39155  64.7675 129.2968 0020648 226.6277  42.6451  2.13101697    12
COSMOS 2492 (754)       
1 39620C 14012A   21341.99979167  .00000000  00000-0  00000-0 0  3417
2 39620  65.8419   9.5503 0014105 314.1407 349.7504  2.13102909    18
COSMOS 2500 (755)       
1 40001C 14032A   21341.99979167  .00000000  00000-0  00000-0 0  3414
2 40001  65.7819   9.4258 0008009 217.3710 305.6880  2.13102172    19
COSMOS 2501 (702)       
1 40315C 14075A   21341.99979167 -.00000000  00000-0  00000-0 0  3410
2 40315  63.7289 247.8819 0016658 210.0661 120.0919  2.13101166    15
COSMOS 2514 (751)       
1 41330C 16008A   21341.99979167  .00000000  00000-0  00000-0 0  3415
2 41330  65.5829   9.1651 0011911 221.4067 125.1273  2.13102578    16
COSMOS 2516 (753)       
1 41554C 16032A   21341.99979167 -.00000000  00000-0  00000-0 0  3411
2 41554  64.6965 247.9426 0006444 252.9946 349.6875  2.13102652    11
COSMOS 2522 (752)       
1 42939C 17055A   21341.99979167 -.00000000  00000-0  00000-0 0  3415
2 42939  64.1881 248.4431 0006765 251.2893 214.0929  2.13102093    16
COSMOS 2527 (756)       
1 43508C 18053A   21341.99979167 -.00000000  00000-0  00000-0 0  3417
2 43508  64.9310 129.2569 0007353 214.2787 283.2258  2.13102324    17
COSMOS 2529 (757)       
1 43687C 18086A   21341.99979167 -.00000000  00000-0  00000-0 0  3411
2 43687  64.4028 248.7078 0009276 275.4324 145.4846  2.13102086    17
COSMOS 2534 (758)       
1 44299C 19030A   21341.99979167 -.00000000  00000-0  00000-0 0  3411
2 44299  64.4741 248.5746 0012494 293.8663 261.7561  2.13101802    16
COSMOS 2544 (759)       
1 44850C 19088A   21341.99979167 -.00000000  00000-0  00000-0 0  3417
2 44850  64.9159 129.1132 0010392 253.1791 287.9336  2.13102088    13
COSMOS 2545 (760)       
1 45358C 20018A   21341.99979167  .00000000  00000-0  00000-0 0  3415
2 45358  64.9184   9.9302 0011409 250.5500 140.3292  2.13102544    18
